start=new Date('2021-11-04T00:00:00.000Z').valueOf();
sats=[{"INCLINATION":"53.0533","OBJECT_TYPE":"PAYLOAD","SEMIMAJOR_AXIS":"6925.342","ELEMENT_SET_NO":"999","EPOCH":"2021-11-03T12:27:39.748320","REV_AT_EPOCH":"9022","MEAN_MOTION_DOT":"0.00000682","REF_FRAME":"TEME","ECCENTRICITY":"0.00015120","MEAN_ANOMALY":"275.3798","LAUNCH_DATE":"2020-03-18","MEAN_MOTION_DDOT":"0.0000000000000","PERIAPSIS":"546.160","TIME_SYSTEM":"UTC","EPHEMERIS_TYPE":"0","PERIOD":"95.592","TLE_LINE2":"2 45408  53.0533  91.7051 0001512  84.7364 275.3798 15.06402192 90220","RCS_SIZE":"LARGE","SITE":"AFETR","GP_ID":"188857408","RA_OF_ASC_NODE":"91.7051","APOAPSIS":"548.254","TLE_LINE1":"1 45408U 20019BA  21307.51921005  .00000682  00000-0  64673-4 0  9995","CLASSIFICATION_TYPE":"U","OBJECT_ID":"2020-019BA","DECAY_DATE":null,"OBJECT_NAME":"STARLINK-1278","MEAN_MOTION":"15.06402192","FILE":"3200165","MEAN_ELEMENT_THEORY":"SGP4","COUNTRY_CODE":"US","CENTER_NAME":"EARTH","ARG_OF_PERICENTER":"84.7364","BSTAR":"0.00006467300000","NORAD_CAT_ID":"45408"},{"PERIAPSIS":"546.395","MEAN_MOTION_DDOT":"0.0000000000000","LAUNCH_DATE":"2020-03-18","MEAN_ANOMALY":"262.7357","ECCENTRICITY":"0.00011750","REF_FRAME":"TEME","MEAN_MOTION_DOT":"0.00000976","REV_AT_EPOCH":"9067","EPOCH":"2021-11-03T17:07:38.240256","ELEMENT_SET_NO":"999","INCLINATION":"53.0569","OBJECT_TYPE":"PAYLOAD","SEMIMAJOR_AXIS":"6925.344","BSTAR":"0.00008442300000","ARG_OF_PERICENTER":"97.3765","NORAD_CAT_ID":"45409","MEAN_ELEMENT_THEORY":"SGP4","COUNTRY_CODE":"US","CENTER_NAME":"EARTH","MEAN_MOTION":"15.06401535","FILE":"3200165","DECAY_DATE":null,"OBJECT_NAME":"STARLINK-1282","OBJECT_ID":"2020-019BB","CLASSIFICATION_TYPE":"U","APOAPSIS":"548.023","TLE_LINE1":"1 45409U 20019BB  21307.71363704  .00000976  00000-0  84423-4 0  9995","RA_OF_ASC_NODE":"60.8393","RCS_SIZE":"LARGE","TLE_LINE2":"2 45409  53.0569  60.8393 0001175  97.3765 262.7357 15.06401535 90676","GP_ID":"188856156","SITE":"AFETR","PERIOD":"95.592","EPHEMERIS_TYPE":"0","TIME_SYSTEM":"UTC"},{"PERIAPSIS":"351.847","MEAN_MOTION_DDOT":"0.0000000000000","ECCENTRICITY":"0.00042690","LAUNCH_DATE":"2020-03-18","MEAN_ANOMALY":"350.1414","REV_AT_EPOCH":"9142","REF_FRAME":"TEME","MEAN_MOTION_DOT":"0.00007029","INCLINATION":"53.0576","OBJECT_TYPE":"PAYLOAD","SEMIMAJOR_AXIS":"6732.856","EPOCH":"2021-11-03T12:44:33.612576","ELEMENT_SET_NO":"999","MEAN_ELEMENT_THEORY":"SGP4","COUNTRY_CODE":"US","CENTER_NAME":"EARTH","ARG_OF_PERICENTER":"9.9687","BSTAR":"0.00005851500000","NORAD_CAT_ID":"45410","OBJECT_NAME":"STARLINK-1285","DECAY_DATE":null,"CLASSIFICATION_TYPE":"U","OBJECT_ID":"2020-019BC","MEAN_MOTION":"15.71461609","FILE":"3199758","RCS_SIZE":"LARGE","TLE_LINE2":"2 45410  53.0576   4.8949 0004269   9.9687 350.1414 15.71461609 91420","GP_ID":"188826654","SITE":"AFETR","PERIOD":"91.634","EPHEMERIS_TYPE":"0","TLE_LINE1":"1 45410U 20019BC  21307.53094459  .00007029  00000-0  58515-4 0  9994","APOAPSIS":"357.595","RA_OF_ASC_NODE":"4.8949","TIME_SYSTEM":"UTC"},{"MEAN_MOTION_DDOT":"0.0000000000000","PERIAPSIS":"546.433","MEAN_ANOMALY":"269.2136","LAUNCH_DATE":"2020-03-18","ECCENTRICITY":"0.00011270","REF_FRAME":"TEME","MEAN_MOTION_DOT":"0.00000651","REV_AT_EPOCH":"9069","ELEMENT_SET_NO":"999","EPOCH":"2021-11-03T17:28:52.386240","INCLINATION":"53.0555","OBJECT_TYPE":"PAYLOAD","SEMIMAJOR_AXIS":"6925.349","ARG_OF_PERICENTER":"90.8982","BSTAR":"0.00006261600000","NORAD_CAT_ID":"45411","MEAN_ELEMENT_THEORY":"SGP4","COUNTRY_CODE":"US","CENTER_NAME":"EARTH","MEAN_MOTION":"15.06399896","FILE":"3200165","CLASSIFICATION_TYPE":"U","OBJECT_ID":"2020-019BD","OBJECT_NAME":"STARLINK-1293","DECAY_DATE":null,"RA_OF_ASC_NODE":"60.7616","TLE_LINE1":"1 45411U 20019BD  21307.72838410  .00000651  00000-0  62616-4 0  9990","APOAPSIS":"547.994","PERIOD":"95.592","EPHEMERIS_TYPE":"0","TLE_LINE2":"2 45411  53.0555  60.7616 0001127  90.8982 269.2136 15.06399896 90692","RCS_SIZE":"LARGE","GP_ID":"188857658","SITE":"AFETR","TIME_SYSTEM":"UTC"},{"PERIAPSIS":"546.249","MEAN_MOTION_DDOT":"0.0000000000000","LAUNCH_DATE":"2020-03-18","MEAN_ANOMALY":"275.9359","ECCENTRICITY":"0.00013980","MEAN_MOTION_DOT":"0.00001428","REF_FRAME":"TEME","REV_AT_EPOCH":"9063","EPOCH":"2021-11-03T11:54:29.184768","ELEMENT_SET_NO":"999","OBJECT_TYPE":"PAYLOAD","SEMIMAJOR_AXIS":"6925.353","INCLINATION":"53.0563","NORAD_CAT_ID":"45412","BSTAR":"0.00011476000000","ARG_OF_PERICENTER":"84.1789","COUNTRY_CODE":"US","CENTER_NAME":"EARTH","MEAN_ELEMENT_THEORY":"SGP4","FILE":"3200093","MEAN_MOTION":"15.06398674","OBJECT_NAME":"STARLINK-1296","DECAY_DATE":null,"CLASSIFICATION_TYPE":"U","OBJECT_ID":"2020-019BE","APOAPSIS":"548.186","TLE_LINE1":"1 45412U 20019BE  21307.49617112  .00001428  00000-0  11476-3 0  9999","RA_OF_ASC_NODE":"61.8139","GP_ID":"188836193","SITE":"AFETR","RCS_SIZE":"LARGE","TLE_LINE2":"2 45412  53.0563  61.8139 0001398  84.1789 275.9359 15.06398674 90633","PERIOD":"95.592","EPHEMERIS_TYPE":"0","TIME_SYSTEM":"UTC"},{"TIME_SYSTEM":"UTC","RCS_SIZE":"LARGE","TLE_LINE2":"2 45413  53.0565  60.7937 0001202  88.1705 271.9421 15.06399097 90766","SITE":"AFETR","GP_ID":"188856657","PERIOD":"95.592","EPHEMERIS_TYPE":"0","APOAPSIS":"548.049","TLE_LINE1":"1 45413U 20019BF  21307.72470957  .00001815  00000-0  14070-3 0  9993","RA_OF_ASC_NODE":"60.7937","OBJECT_NAME":"STARLINK-1298","DECAY_DATE":null,"CLASSIFICATION_TYPE":"U","OBJECT_ID":"2020-019BF","MEAN_MOTION":"15.06399097","FILE":"3200165","COUNTRY_CODE":"US","MEAN_ELEMENT_THEORY":"SGP4","CENTER_NAME":"EARTH","BSTAR":"0.00014070000000","ARG_OF_PERICENTER":"88.1705","NORAD_CAT_ID":"45413","INCLINATION":"53.0565","OBJECT_TYPE":"PAYLOAD","SEMIMAJOR_AXIS":"6925.351","EPOCH":"2021-11-03T17:23:34.906848","ELEMENT_SET_NO":"999","REV_AT_EPOCH":"9076","REF_FRAME":"TEME","MEAN_MOTION_DOT":"0.00001815","ECCENTRICITY":"0.00012020","LAUNCH_DATE":"2020-03-18","MEAN_ANOMALY":"271.9421","PERIAPSIS":"546.384","MEAN_MOTION_DDOT":"0.0000000000000"},{"LAUNCH_DATE":"2020-03-18","MEAN_ANOMALY":"276.1941","ECCENTRICITY":"0.00012660","PERIAPSIS":"546.350","MEAN_MOTION_DDOT":"0.0000000000000","EPOCH":"2021-11-03T13:51:15.833376","ELEMENT_SET_NO":"999","SEMIMAJOR_AXIS":"6925.361","OBJECT_TYPE":"PAYLOAD","INCLINATION":"53.0557","MEAN_MOTION_DOT":"0.00000107","REF_FRAME":"TEME","REV_AT_EPOCH":"9063","FILE":"3200165","MEAN_MOTION":"15.06395841","DECAY_DATE":null,"OBJECT_NAME":"STARLINK-1309","CLASSIFICATION_TYPE":"U","OBJECT_ID":"2020-019BG","NORAD_CAT_ID":"45414","ARG_OF_PERICENTER":"83.9192","BSTAR":"0.00002606100000","MEAN_ELEMENT_THEORY":"SGP4","COUNTRY_CODE":"US","CENTER_NAME":"EARTH","TIME_SYSTEM":"UTC","APOAPSIS":"548.103","TLE_LINE1":"1 45414U 20019BG  21307.57726659  .00000107  00000-0  26061-4 0  9997","RA_OF_ASC_NODE":"61.4546","SITE":"AFETR","GP_ID":"188856907","RCS_SIZE":"LARGE","TLE_LINE2":"2 45414  53.0557  61.4546 0001266  83.9192 276.1941 15.06395841 90638","EPHEMERIS_TYPE":"0","PERIOD":"95.592"},{"PERIAPSIS":"546.332","MEAN_MOTION_DDOT":"0.0000000000000","ECCENTRICITY":"0.00012730","LAUNCH_DATE":"2020-03-18","MEAN_ANOMALY":"284.4844","REV_AT_EPOCH":"9067","REF_FRAME":"TEME","MEAN_MOTION_DOT":"0.00003351","OBJECT_TYPE":"PAYLOAD","SEMIMAJOR_AXIS":"6925.348","INCLINATION":"53.0529","EPOCH":"2021-11-03T14:28:25.034592","ELEMENT_SET_NO":"999","CENTER_NAME":"EARTH","COUNTRY_CODE":"US","MEAN_ELEMENT_THEORY":"SGP4","NORAD_CAT_ID":"45415","BSTAR":"0.00024373000000","ARG_OF_PERICENTER":"75.6286","OBJECT_NAME":"STARLINK-1316","DECAY_DATE":null,"CLASSIFICATION_TYPE":"U","OBJECT_ID":"2020-019BH","MEAN_MOTION":"15.06400114","FILE":"3200165","GP_ID":"188857158","SITE":"AFETR","RCS_SIZE":"LARGE","TLE_LINE2":"2 45415  53.0529  61.3251 0001273  75.6286 284.4844 15.06400114 90678","PERIOD":"95.592","EPHEMERIS_TYPE":"0","APOAPSIS":"548.095","TLE_LINE1":"1 45415U 20019BH  21307.60306753  .00003351  00000-0  24373-3 0  9998","RA_OF_ASC_NODE":"61.3251","TIME_SYSTEM":"UTC"},{"TLE_LINE1":"1 45416U 20019BJ  21307.50354858  .00006759  00000-0  47261-3 0  9993","APOAPSIS":"548.341","RA_OF_ASC_NODE":"61.7806","RCS_SIZE":"LARGE","TLE_LINE2":"2 45416  53.0559  61.7806 0001498  84.9735 275.1425 15.06370606 90644","SITE":"AFETR","GP_ID":"188836252","EPHEMERIS_TYPE":"0","PERIOD":"95.594","TIME_SYSTEM":"UTC","BSTAR":"0.00047261000000","ARG_OF_PERICENTER":"84.9735","NORAD_CAT_ID":"45416","CENTER_NAME":"EARTH","COUNTRY_CODE":"US","MEAN_ELEMENT_THEORY":"SGP4","MEAN_MOTION":"15.06370606","FILE":"3200096","DECAY_DATE":null,"OBJECT_NAME":"STARLINK-1318","OBJECT_ID":"2020-019BJ","CLASSIFICATION_TYPE":"U","MEAN_MOTION_DOT":"0.00006759","REF_FRAME":"TEME","REV_AT_EPOCH":"9064","EPOCH":"2021-11-03T12:05:06.597312","ELEMENT_SET_NO":"999","INCLINATION":"53.0559","OBJECT_TYPE":"PAYLOAD","SEMIMAJOR_AXIS":"6925.439","PERIAPSIS":"546.266","MEAN_MOTION_DDOT":"0.0000000000000","LAUNCH_DATE":"2020-03-18","MEAN_ANOMALY":"275.1425","ECCENTRICITY":"0.00014980"},{"LAUNCH_DATE":"2020-03-18","MEAN_ANOMALY":"267.7208","ECCENTRICITY":"0.00016550","PERIAPSIS":"546.064","MEAN_MOTION_DDOT":"0.0000000000000","EPOCH":"2021-11-03T16:58:21.813024","ELEMENT_SET_NO":"999","INCLINATION":"53.0556","OBJECT_TYPE":"PAYLOAD","SEMIMAJOR_AXIS":"6925.345","MEAN_MOTION_DOT":"0.00002408","REF_FRAME":"TEME","REV_AT_EPOCH":"9052","MEAN_MOTION":"15.06401084","FILE":"3200165","OBJECT_NAME":"STARLINK-1286","DECAY_DATE":null,"CLASSIFICATION_TYPE":"U","OBJECT_ID":"2020-019BK","ARG_OF_PERICENTER":"92.3971","BSTAR":"0.00018048000000","NORAD_CAT_ID":"45417","COUNTRY_CODE":"US","CENTER_NAME":"EARTH","MEAN_ELEMENT_THEORY":"SGP4","TIME_SYSTEM":"UTC","APOAPSIS":"548.356","TLE_LINE1":"1 45417U 20019BK  21307.70719691  .00002408  00000-0  18048-3 0  9994","RA_OF_ASC_NODE":"90.8705","RCS_SIZE":"LARGE","TLE_LINE2":"2 45417  53.0556  90.8705 0001655  92.3971 267.7208 15.06401084 90521","SITE":"AFETR","GP_ID":"188856157","PERIOD":"95.592","EPHEMERIS_TYPE":"0"}];
